[{"OBJECT_NAME":"QIANFAN-70","OBJECT_ID":"2025-016R","EPOCH":"2026-03-09T21:17:40.322400","MEAN_MOTION":13.50997301,"ECCENTRICITY":0.00175475,"INCLINATION":88.9684,"RA_OF_ASC_NODE":94.0848,"ARG_OF_PERICENTER":85.1805,"MEAN_ANOMALY":275.135,"EPHEMERIS_TYPE":0,"CLASSIFICATION_TYPE":"U","NORAD_CAT_ID":62800,"ELEMENT_SET_NO":999,"REV_AT_EPOCH":5900,"BSTAR":3.5602904e-5,"MEAN_MOTION_DOT":3.5e-7,"MEAN_MOTION_DDOT":0},{"OBJECT_NAME":"THORAD AGENA D R\/B","OBJECT_ID":"1969-037C","EPOCH":"2026-03-09T18:53:53.657376","MEAN_MOTION":13.42143278,"ECCENTRICITY":0.00386182,"INCLINATION":99.9081,"RA_OF_ASC_NODE":339.5705,"ARG_OF_PERICENTER":308.5906,"MEAN_ANOMALY":119.3832,"EPHEMERIS_TYPE":0,"CLASSIFICATION_TYPE":"U","NORAD_CAT_ID":3892,"ELEMENT_SET_NO":999,"REV_AT_EPOCH":78610,"BSTAR":9.3941762e-5,"MEAN_MOTION_DOT":9.0e-8,"MEAN_MOTION_DDOT":0}]
